{"type": "FeatureCollection", "features": [ {"type": "Feature", "properties": {"norad_id": 58662, "name": "TIANMU-1 21", "group": "weather", "lat": 3.918484282574763, "lon": 96.0711392298545, "alt_km": 474.00281618241934, "timestamp": "2025-12-09T04:51:47.151958+00:00", "meta": {"OBJECT_NAME": "TIANMU-1 21", "OBJECT_ID": "2023-208C", "EPOCH": "2025-12-08T21:00:18.048096", "MEAN_MOTION": 15.31423335, "ECCENTRICITY": 0.000592, "INCLINATION": 97.4378, "RA_OF_ASC_NODE": 96.2554, "ARG_OF_PERICENTER": 276.7587, "MEAN_ANOMALY": 83.298, "EPHEMERIS_TYPE": 0, "CLASSIFICATION_TYPE": "U", "NORAD_CAT_ID": 58662, "ELEMENT_SET_NO": 999, "REV_AT_EPOCH": 10840, "BSTAR": 0.00052124, "MEAN_MOTION_DOT": 0.00015763, "MEAN_MOTION_DDOT": 0}, "tle": {"line1": "1 58662U 23208C   25342.87520889  .00015763  00000+0  52124-3 0  9993", "line2": "2 58662  97.4378  96.2554 0005920 276.7587  83.2980 15.31423335108409"}}, "geometry": {"type": "Point", "coordinates": [96.0711392298545, 3.918484282574763]}}, {"type": "Feature", "properties": {"norad_id": 58663, "name": "TIANMU-1 22", "group": "weather", "lat": -23.5993719139964, "lon": 97.57988821791365, "alt_km": 487.18634165877756, "timestamp": "2025-12-09T04:51:47.151968+00:00", "meta": {"OBJECT_NAME": "TIANMU-1 22", "OBJECT_ID": "2023-208D", "EPOCH": "2025-12-08T21:06:21.898368", "MEAN_MOTION": 15.27502421, "ECCENTRICITY": 0.0002815, "INCLINATION": 97.4385, "RA_OF_ASC_NODE": 93.9854, "ARG_OF_PERICENTER": 306.2293, "MEAN_ANOMALY": 53.8686, "EPHEMERIS_TYPE": 0, "CLASSIFICATION_TYPE": "U", "NORAD_CAT_ID": 58663, "ELEMENT_SET_NO": 999, "REV_AT_EPOCH": 10824, "BSTAR": 0.00045872, "MEAN_MOTION_DOT": 0.00012277, "MEAN_MOTION_DDOT": 0}, "tle": {"line1": "1 58663U 23208D   25342.87942012  .00012277  00000+0  45872-3 0  9999", "line2": "2 58663  97.4385  93.9854 0002815 306.2293  53.8686 15.27502421108245"}}, "geometry": {"type": "Point", "coordinates": [97.57988821791365, -23.5993719139964]}}, {"type": "Feature", "properties": {"norad_id": 58700, "name": "TIANMU-1 15", "group": "weather", "lat": 36.79999216684638, "lon": -9.687076743974536, "alt_km": 493.0642394880133, "timestamp": "2025-12-09T04:51:47.151978+00:00", "meta": {"OBJECT_NAME": "TIANMU-1 15", "OBJECT_ID": "2024-004A", "EPOCH": "2025-12-08T20:21:46.462752", "MEAN_MOTION": 15.24601326, "ECCENTRICITY": 0.0005365, "INCLINATION": 97.4629, "RA_OF_ASC_NODE": 164.3324, "ARG_OF_PERICENTER": 314.7161, "MEAN_ANOMALY": 45.3639, "EPHEMERIS_TYPE": 0, "CLASSIFICATION_TYPE": "U", "NORAD_CAT_ID": 58700, "ELEMENT_SET_NO": 999, "REV_AT_EPOCH": 10675, "BSTAR": 0.00044497, "MEAN_MOTION_DOT": 0.0001091, "MEAN_MOTION_DDOT": 0}, "tle": {"line1": "1 58700U 24004A   25342.84845443  .00010910  00000+0  44497-3 0  9997", "line2": "2 58700  97.4629 164.3324 0005365 314.7161  45.3639 15.24601326106753"}}, "geometry": {"type": "Point", "coordinates": [-9.687076743974536, 36.79999216684638]}}, {"type": "Feature", "properties": {"norad_id": 58701, "name": "TIANMU-1 16", "group": "weather", "lat": -47.22829681514606, "lon": -24.061696198006214, "alt_km": 499.25096337861123, "timestamp": "2025-12-09T04:51:47.151989+00:00", "meta": {"OBJECT_NAME": "TIANMU-1 16", "OBJECT_ID": "2024-004B", "EPOCH": "2025-12-08T19:59:22.856352", "MEAN_MOTION": 15.24353383, "ECCENTRICITY": 0.000467, "INCLINATION": 97.4569, "RA_OF_ASC_NODE": 163.71, "ARG_OF_PERICENTER": 313.3281, "MEAN_ANOMALY": 46.7567, "EPHEMERIS_TYPE": 0, "CLASSIFICATION_TYPE": "U", "NORAD_CAT_ID": 58701, "ELEMENT_SET_NO": 999, "REV_AT_EPOCH": 10675, "BSTAR": 0.00043101, "MEAN_MOTION_DOT": 0.00010486, "MEAN_MOTION_DDOT": 0}, "tle": {"line1": "1 58701U 24004B   25342.83290343  .00010486  00000+0  43101-3 0  9999", "line2": "2 58701  97.4569 163.7100 0004670 313.3281  46.7567 15.24353383106750"}}, "geometry": {"type": "Point", "coordinates": [-24.061696198006214, -47.22829681514606]}}, {"type": "Feature", "properties": {"norad_id": 58702, "name": "TIANMU-1 17", "group": "weather", "lat": -47.895511112809764, "lon": 172.8233201249864, "alt_km": 496.78888858418213, "timestamp": "2025-12-09T04:51:47.151999+00:00", "meta": {"OBJECT_NAME": "TIANMU-1 17", "OBJECT_ID": "2024-004C", "EPOCH": "2025-12-08T19:37:21.713088", "MEAN_MOTION": 15.24397343, "ECCENTRICITY": 0.0003894, "INCLINATION": 97.4603, "RA_OF_ASC_NODE": 164.1027, "ARG_OF_PERICENTER": 317.4455, "MEAN_ANOMALY": 42.648, "EPHEMERIS_TYPE": 0, "CLASSIFICATION_TYPE": "U", "NORAD_CAT_ID": 58702, "ELEMENT_SET_NO": 999, "REV_AT_EPOCH": 10674, "BSTAR": 0.00042004, "MEAN_MOTION_DOT": 0.0001023, "MEAN_MOTION_DDOT": 0}, "tle": {"line1": "1 58702U 24004C   25342.81761242  .00010230  00000+0  42004-3 0  9997", "line2": "2 58702  97.4603 164.1027 0003894 317.4455  42.6480 15.24397343106740"}}, "geometry": {"type": "Point", "coordinates": [172.8233201249864, -47.895511112809764]}}, {"type": "Feature", "properties": {"norad_id": 58703, "name": "TIANMU-1 18", "group": "weather", "lat": 42.814335941988546, "lon": 157.70584083597595, "alt_km": 488.98918258426966, "timestamp": "2025-12-09T04:51:47.152011+00:00", "meta": {"OBJECT_NAME": "TIANMU-1 18", "OBJECT_ID": "2024-004D", "EPOCH": "2025-12-08T20:47:48.953184", "MEAN_MOTION": 15.24387495, "ECCENTRICITY": 0.0003258, "INCLINATION": 97.462, "RA_OF_ASC_NODE": 164.346, "ARG_OF_PERICENTER": 318.3038, "MEAN_ANOMALY": 41.795, "EPHEMERIS_TYPE": 0, "CLASSIFICATION_TYPE": "U", "NORAD_CAT_ID": 58703, "ELEMENT_SET_NO": 999, "REV_AT_EPOCH": 10675, "BSTAR": 0.0004342, "MEAN_MOTION_DOT": 0.00010574, "MEAN_MOTION_DDOT": 0}, "tle": {"line1": "1 58703U 24004D   25342.86653881  .00010574  00000+0  43420-3 0  9996", "line2": "2 58703  97.4620 164.3460 0003258 318.3038  41.7950 15.24387495106754"}}, "geometry": {"type": "Point", "coordinates": [157.70584083597595, 42.814335941988546]}}, {"type": "Feature", "properties": {"norad_id": 58990, "name": "INSAT-3DS", "group": "weather", "lat": -0.00819219879906376, "lon": -126.78983017990511, "alt_km": 35780.66698295732, "timestamp": "2025-12-09T04:51:47.152023+00:00", "meta": {"OBJECT_NAME": "INSAT-3DS", "OBJECT_ID": "2024-033A", "EPOCH": "2025-12-08T19:07:51.582720", "MEAN_MOTION": 1.00269579, "ECCENTRICITY": 0.0001671, "INCLINATION": 0.0153, "RA_OF_ASC_NODE": 78.832, "ARG_OF_PERICENTER": 185.619, "MEAN_ANOMALY": 182.3948, "EPHEMERIS_TYPE": 0, "CLASSIFICATION_TYPE": "U", "NORAD_CAT_ID": 58990, "ELEMENT_SET_NO": 999, "REV_AT_EPOCH": 4515, "BSTAR": 0, "MEAN_MOTION_DOT": -1.53e-06, "MEAN_MOTION_DDOT": 0}, "tle": {"line1": "1 58990U 24033A   25342.79712480 -.00000153  00000+0  00000+0 0  9995", "line2": "2 58990   0.0153  78.8320 0001671 185.6190 182.3948  1.00269579 45154"}}, "geometry": {"type": "Point", "coordinates": [-126.78983017990511, -0.00819219879906376]}}, {"type": "Feature", "properties": {"norad_id": 59051, "name": "METEOR-M2 4", "group": "weather", "lat": 72.79294215898375, "lon": -89.3743528208253, "alt_km": 808.1446105279638, "timestamp": "2025-12-09T04:51:47.152036+00:00", "meta": {"OBJECT_NAME": "METEOR-M2 4", "OBJECT_ID": "2024-039A", "EPOCH": "2025-12-08T21:45:31.862592", "MEAN_MOTION": 14.22400463, "ECCENTRICITY": 0.0007257, "INCLINATION": 98.6761, "RA_OF_ASC_NODE": 299.8758, "ARG_OF_PERICENTER": 9.4637, "MEAN_ANOMALY": 350.6676, "EPHEMERIS_TYPE": 0, "CLASSIFICATION_TYPE": "U", "NORAD_CAT_ID": 59051, "ELEMENT_SET_NO": 999, "REV_AT_EPOCH": 9221, "BSTAR": 7.0495e-05, "MEAN_MOTION_DOT": 1.13e-06, "MEAN_MOTION_DDOT": 0}, "tle": {"line1": "1 59051U 24039A   25342.90661878  .00000113  00000+0  70495-4 0  9992", "line2": "2 59051  98.6761 299.8758 0007257   9.4637 350.6676 14.22400463 92210"}}, "geometry": {"type": "Point", "coordinates": [-89.3743528208253, 72.79294215898375]}}, {"type": "Feature", "properties": {"norad_id": 60133, "name": "GOES 19", "group": "weather", "lat": 0.011324448057186477, "lon": 75.96795402075898, "alt_km": 35790.24921774672, "timestamp": "2025-12-09T04:51:47.152048+00:00", "meta": {"OBJECT_NAME": "GOES 19", "OBJECT_ID": "2024-119A", "EPOCH": "2025-12-08T18:22:48.398880", "MEAN_MOTION": 1.00271039, "ECCENTRICITY": 0.0001332, "INCLINATION": 0.0347, "RA_OF_ASC_NODE": 184.3786, "ARG_OF_PERICENTER": 117.6205, "MEAN_ANOMALY": 336.2875, "EPHEMERIS_TYPE": 0, "CLASSIFICATION_TYPE": "U", "NORAD_CAT_ID": 60133, "ELEMENT_SET_NO": 999, "REV_AT_EPOCH": 505, "BSTAR": 0, "MEAN_MOTION_DOT": -2.46e-06, "MEAN_MOTION_DDOT": 0}, "tle": {"line1": "1 60133U 24119A   25342.76583795 -.00000246  00000+0  00000+0 0  9997", "line2": "2 60133   0.0347 184.3786 0001332 117.6205 336.2875  1.00271039  5054"}}, "geometry": {"type": "Point", "coordinates": [75.96795402075898, 0.011324448057186477]}}, {"type": "Feature", "properties": {"norad_id": 65815, "name": "FENGYUN 3H", "group": "weather", "lat": -14.257230212285856, "lon": -74.91119870720019, "alt_km": 830.3060987998397, "timestamp": "2025-12-09T04:51:47.152061+00:00", "meta": {"OBJECT_NAME": "FENGYUN 3H", "OBJECT_ID": "2025-219A", "EPOCH": "2025-12-08T20:28:29.344224", "MEAN_MOTION": 14.19903172, "ECCENTRICITY": 6.05e-05, "INCLINATION": 98.6579, "RA_OF_ASC_NODE": 282.5281, "ARG_OF_PERICENTER": 83.6677, "MEAN_ANOMALY": 276.4569, "EPHEMERIS_TYPE": 0, "CLASSIFICATION_TYPE": "U", "NORAD_CAT_ID": 65815, "ELEMENT_SET_NO": 999, "REV_AT_EPOCH": 1037, "BSTAR": 0.00012538, "MEAN_MOTION_DOT": 2.23e-06, "MEAN_MOTION_DDOT": 0}, "tle": {"line1": "1 65815U 25219A   25342.85311741  .00000223  00000+0  12538-3 0  9998", "line2": "2 65815  98.6579 282.5281 0000605  83.6677 276.4569 14.19903172 10374"}}, "geometry": {"type": "Point", "coordinates": [-74.91119870720019, -14.257230212285856]}}]}